{"type": "FeatureCollection", "features": [ {"type": "Feature", "properties": {"norad_id": 34750, "name": "COSMOS 2251 DEB", "group": "cosmos-2251-debris", "lat": 18.464931402652876, "lon": -178.34069214326078, "alt_km": 695.4840939109681, "timestamp": "2025-12-26T03:50:12.489222+00:00", "meta": {"OBJECT_NAME": "COSMOS 2251 DEB", "OBJECT_ID": "1993-036ZU", "EPOCH": "2025-12-25T11:27:02.983104", "MEAN_MOTION": 14.61447925, "ECCENTRICITY": 0.0038253, "INCLINATION": 74.1072, "RA_OF_ASC_NODE": 177.4998, "ARG_OF_PERICENTER": 126.1328, "MEAN_ANOMALY": 263.0141, "EPHEMERIS_TYPE": 0, "CLASSIFICATION_TYPE": "U", "NORAD_CAT_ID": 34750, "ELEMENT_SET_NO": 999, "REV_AT_EPOCH": 88417, "BSTAR": 0.0012106, "MEAN_MOTION_DOT": 6.035e-05, "MEAN_MOTION_DDOT": 0}, "tle": {"line1": "1 34750U 93036ZU  25359.47711786  .00006035  00000+0  12106-2 0  9990", "line2": "2 34750  74.1072 177.4998 0038253 126.1328 263.0141 14.61447925884179"}}, "geometry": {"type": "Point", "coordinates": [-178.34069214326078, 18.464931402652876]}}, {"type": "Feature", "properties": {"norad_id": 34752, "name": "COSMOS 2251 DEB", "group": "cosmos-2251-debris", "lat": -46.3816683618638, "lon": 170.7955143131846, "alt_km": 594.2844955457012, "timestamp": "2025-12-26T03:50:12.489232+00:00", "meta": {"OBJECT_NAME": "COSMOS 2251 DEB", "OBJECT_ID": "1993-036ZW", "EPOCH": "2025-12-24T23:37:01.037856", "MEAN_MOTION": 15.00207834, "ECCENTRICITY": 0.00475066, "INCLINATION": 74.0138, "RA_OF_ASC_NODE": 335.6795, "ARG_OF_PERICENTER": 100.1663, "MEAN_ANOMALY": 260.4888, "EPHEMERIS_TYPE": 0, "CLASSIFICATION_TYPE": "U", "NORAD_CAT_ID": 34752, "ELEMENT_SET_NO": 999, "REV_AT_EPOCH": 90033, "BSTAR": 0.0010890441, "MEAN_MOTION_DOT": 0.00013935, "MEAN_MOTION_DDOT": 0}, "tle": {"line1": "1 34752U 93036ZW  25358.98403979  .00013935  00000+0  10890-2 0  9994", "line2": "2 34752  74.0138 335.6795 0047506 100.1663 260.4888 15.00207834900334"}}, "geometry": {"type": "Point", "coordinates": [170.7955143131846, -46.3816683618638]}}, {"type": "Feature", "properties": {"norad_id": 34754, "name": "COSMOS 2251 DEB", "group": "cosmos-2251-debris", "lat": -24.852374996383926, "lon": 30.401364258161035, "alt_km": 769.5073570264558, "timestamp": "2025-12-26T03:50:12.489242+00:00", "meta": {"OBJECT_NAME": "COSMOS 2251 DEB", "OBJECT_ID": "1993-036ZY", "EPOCH": "2025-12-25T00:55:15.569760", "MEAN_MOTION": 14.40497897, "ECCENTRICITY": 0.0030006, "INCLINATION": 74.0289, "RA_OF_ASC_NODE": 204.8528, "ARG_OF_PERICENTER": 318.6589, "MEAN_ANOMALY": 193.9982, "EPHEMERIS_TYPE": 0, "CLASSIFICATION_TYPE": "U", "NORAD_CAT_ID": 34754, "ELEMENT_SET_NO": 999, "REV_AT_EPOCH": 88310, "BSTAR": 0.0001940579, "MEAN_MOTION_DOT": 5.94e-06, "MEAN_MOTION_DDOT": 0}, "tle": {"line1": "1 34754U 93036ZY  25359.03837465  .00000594  00000+0  19406-3 0  9994", "line2": "2 34754  74.0289 204.8528 0030006 318.6589 193.9982 14.40497897883107"}}, "geometry": {"type": "Point", "coordinates": [30.401364258161035, -24.852374996383926]}}, {"type": "Feature", "properties": {"norad_id": 34755, "name": "COSMOS 2251 DEB", "group": "cosmos-2251-debris", "lat": -60.65084987468784, "lon": -122.39260407806401, "alt_km": 776.5310061649079, "timestamp": "2025-12-26T03:50:12.489252+00:00", "meta": {"OBJECT_NAME": "COSMOS 2251 DEB", "OBJECT_ID": "1993-036ZZ", "EPOCH": "2025-12-25T10:58:37.231104", "MEAN_MOTION": 13.50579623, "ECCENTRICITY": 0.0407887, "INCLINATION": 73.9257, "RA_OF_ASC_NODE": 269.5833, "ARG_OF_PERICENTER": 287.1758, "MEAN_ANOMALY": 192.7333, "EPHEMERIS_TYPE": 0, "CLASSIFICATION_TYPE": "U", "NORAD_CAT_ID": 34755, "ELEMENT_SET_NO": 999, "REV_AT_EPOCH": 82695, "BSTAR": 0.00071737, "MEAN_MOTION_DOT": 7.49e-06, "MEAN_MOTION_DDOT": 0}, "tle": {"line1": "1 34755U 93036ZZ  25359.45737536  .00000749  00000+0  71737-3 0  9996", "line2": "2 34755  73.9257 269.5833 0407887 287.1758 192.7333 13.50579623826956"}}, "geometry": {"type": "Point", "coordinates": [-122.39260407806401, -60.65084987468784]}}, {"type": "Feature", "properties": {"norad_id": 34756, "name": "COSMOS 2251 DEB", "group": "cosmos-2251-debris", "lat": -69.08472282459826, "lon": 33.65733976012596, "alt_km": 796.174199528753, "timestamp": "2025-12-26T03:50:12.489263+00:00", "meta": {"OBJECT_NAME": "COSMOS 2251 DEB", "OBJECT_ID": "1993-036AAA", "EPOCH": "2025-12-24T15:18:41.454720", "MEAN_MOTION": 13.67272702, "ECCENTRICITY": 0.0345926, "INCLINATION": 74.0032, "RA_OF_ASC_NODE": 84.8024, "ARG_OF_PERICENTER": 318.0621, "MEAN_ANOMALY": 39.4462, "EPHEMERIS_TYPE": 0, "CLASSIFICATION_TYPE": "U", "NORAD_CAT_ID": 34756, "ELEMENT_SET_NO": 999, "REV_AT_EPOCH": 83584, "BSTAR": 0.0010747811, "MEAN_MOTION_DOT": 1.342e-05, "MEAN_MOTION_DDOT": 0}, "tle": {"line1": "1 34756U 93036AAA 25358.63797980  .00001342  00000+0  10748-2 0  9999", "line2": "2 34756  74.0032  84.8024 0345926 318.0621  39.4462 13.67272702835842"}}, "geometry": {"type": "Point", "coordinates": [33.65733976012596, -69.08472282459826]}}, {"type": "Feature", "properties": {"norad_id": 34758, "name": "COSMOS 2251 DEB", "group": "cosmos-2251-debris", "lat": -46.398673910766185, "lon": -99.50820605914157, "alt_km": 1024.535667465936, "timestamp": "2025-12-26T03:50:12.489273+00:00", "meta": {"OBJECT_NAME": "COSMOS 2251 DEB", "OBJECT_ID": "1993-036AAC", "EPOCH": "2025-12-25T01:33:06.423552", "MEAN_MOTION": 13.58115883, "ECCENTRICITY": 0.03824027, "INCLINATION": 74.107, "RA_OF_ASC_NODE": 279.661, "ARG_OF_PERICENTER": 40.5031, "MEAN_ANOMALY": 322.3879, "EPHEMERIS_TYPE": 0, "CLASSIFICATION_TYPE": "U", "NORAD_CAT_ID": 34758, "ELEMENT_SET_NO": 999, "REV_AT_EPOCH": 83077, "BSTAR": 0.0017795069, "MEAN_MOTION_DOT": 2.058e-05, "MEAN_MOTION_DDOT": 0}, "tle": {"line1": "1 34758U 93036AAC 25359.06465768  .00002058  00000+0  17795-2 0  9999", "line2": "2 34758  74.1070 279.6610 0382402  40.5031 322.3879 13.58115883830773"}}, "geometry": {"type": "Point", "coordinates": [-99.50820605914157, -46.398673910766185]}}, {"type": "Feature", "properties": {"norad_id": 34760, "name": "COSMOS 2251 DEB", "group": "cosmos-2251-debris", "lat": -61.82788330999308, "lon": -113.83318472186723, "alt_km": 775.1712831786908, "timestamp": "2025-12-26T03:50:12.489283+00:00", "meta": {"OBJECT_NAME": "COSMOS 2251 DEB", "OBJECT_ID": "1993-036AAE", "EPOCH": "2025-12-25T11:47:05.253792", "MEAN_MOTION": 14.1960114, "ECCENTRICITY": 0.0097301, "INCLINATION": 74.0632, "RA_OF_ASC_NODE": 279.6032, "ARG_OF_PERICENTER": 328.9343, "MEAN_ANOMALY": 148.5075, "EPHEMERIS_TYPE": 0, "CLASSIFICATION_TYPE": "U", "NORAD_CAT_ID": 34760, "ELEMENT_SET_NO": 999, "REV_AT_EPOCH": 86869, "BSTAR": 0.0006002, "MEAN_MOTION_DOT": 1.303e-05, "MEAN_MOTION_DDOT": 0}, "tle": {"line1": "1 34760U 93036AAE 25359.49103303  .00001303  00000+0  60020-3 0  9995", "line2": "2 34760  74.0632 279.6032 0097301 328.9343 148.5075 14.19601140868699"}}, "geometry": {"type": "Point", "coordinates": [-113.83318472186723, -61.82788330999308]}}, {"type": "Feature", "properties": {"norad_id": 34761, "name": "COSMOS 2251 DEB", "group": "cosmos-2251-debris", "lat": 25.449500741390484, "lon": -14.106534724639324, "alt_km": 738.4738395054183, "timestamp": "2025-12-26T03:50:12.489293+00:00", "meta": {"OBJECT_NAME": "COSMOS 2251 DEB", "OBJECT_ID": "1993-036AAF", "EPOCH": "2025-12-24T04:58:02.700480", "MEAN_MOTION": 14.38089541, "ECCENTRICITY": 0.00370278, "INCLINATION": 74.0286, "RA_OF_ASC_NODE": 341.6577, "ARG_OF_PERICENTER": 12.6034, "MEAN_ANOMALY": 347.6036, "EPHEMERIS_TYPE": 0, "CLASSIFICATION_TYPE": "U", "NORAD_CAT_ID": 34761, "ELEMENT_SET_NO": 999, "REV_AT_EPOCH": 87814, "BSTAR": 0.00063419722, "MEAN_MOTION_DOT": 1.911e-05, "MEAN_MOTION_DDOT": 0}, "tle": {"line1": "1 34761U 93036AAF 25358.20697570  .00001911  00000+0  63420-3 0  9990", "line2": "2 34761  74.0286 341.6577 0037027  12.6034 347.6036 14.38089541878148"}}, "geometry": {"type": "Point", "coordinates": [-14.106534724639324, 25.449500741390484]}}, {"type": "Feature", "properties": {"norad_id": 34784, "name": "COSMOS 2251 DEB", "group": "cosmos-2251-debris", "lat": -73.2456990105386, "lon": -133.63728286186884, "alt_km": 731.74809570858, "timestamp": "2025-12-26T03:50:12.489303+00:00", "meta": {"OBJECT_NAME": "COSMOS 2251 DEB", "OBJECT_ID": "1993-036AAM", "EPOCH": "2025-12-23T20:20:47.467104", "MEAN_MOTION": 14.60826245, "ECCENTRICITY": 0.004917, "INCLINATION": 74.0068, "RA_OF_ASC_NODE": 303.0929, "ARG_OF_PERICENTER": 109.1167, "MEAN_ANOMALY": 251.5332, "EPHEMERIS_TYPE": 0, "CLASSIFICATION_TYPE": "U", "NORAD_CAT_ID": 34784, "ELEMENT_SET_NO": 999, "REV_AT_EPOCH": 88697, "BSTAR": 0.00043134, "MEAN_MOTION_DOT": 2.114e-05, "MEAN_MOTION_DDOT": 0}, "tle": {"line1": "1 34784U 93036AAM 25357.84777161  .00002114  00000+0  43134-3 0  9995", "line2": "2 34784  74.0068 303.0929 0049170 109.1167 251.5332 14.60826245886972"}}, "geometry": {"type": "Point", "coordinates": [-133.63728286186884, -73.2456990105386]}}, {"type": "Feature", "properties": {"norad_id": 34790, "name": "COSMOS 2251 DEB", "group": "cosmos-2251-debris", "lat": 72.94598940539298, "lon": -29.224411165787973, "alt_km": 874.4152552879823, "timestamp": "2025-12-26T03:50:12.489313+00:00", "meta": {"OBJECT_NAME": "COSMOS 2251 DEB", "OBJECT_ID": "1993-036AAT", "EPOCH": "2025-12-25T15:51:16.162272", "MEAN_MOTION": 14.24671167, "ECCENTRICITY": 0.0100473, "INCLINATION": 74.0524, "RA_OF_ASC_NODE": 220.442, "ARG_OF_PERICENTER": 279.3563, "MEAN_ANOMALY": 137.0748, "EPHEMERIS_TYPE": 0, "CLASSIFICATION_TYPE": "U", "NORAD_CAT_ID": 34790, "ELEMENT_SET_NO": 999, "REV_AT_EPOCH": 86757, "BSTAR": 0.00054898, "MEAN_MOTION_DOT": 1.32e-05, "MEAN_MOTION_DDOT": 0}, "tle": {"line1": "1 34790U 93036AAT 25359.66060373  .00001320  00000+0  54898-3 0  9991", "line2": "2 34790  74.0524 220.4420 0100473 279.3563 137.0748 14.24671167867573"}}, "geometry": {"type": "Point", "coordinates": [-29.224411165787973, 72.94598940539298]}}]}